OBJECT_NAME,OBJECT_ID,EPOCH,MEAN_MOTION,ECCENTRICITY,INCLINATION,RA_OF_ASC_NODE,ARG_OF_PERICENTER,MEAN_ANOMALY,EPHEMERIS_TYPE,CLASSIFICATION_TYPE,NORAD_CAT_ID,ELEMENT_SET_NO,REV_AT_EPOCH,BSTAR,MEAN_MOTION_DOT,MEAN_MOTION_DDOT
STARLINK-34254,2025-111P,2026-06-14T12:07:19.292160,15.27587286,.0003863,43.0052,250.8041,275.2195,84.8215,0,U,64136,999,6027,.55653E-3,.15089E-3,0
STARLINK-34230,2025-111Q,2026-06-14T12:00:02.998944,15.85474833,.0024495,42.9819,215.1974,61.9605,150.6498,0,U,64137,999,601,.85225E-3,.221383E-2,0
STARLINK-34129,2025-111R,2026-06-14T13:04:39.474912,15.27593084,.0000296,43.0063,251.0982,327.7692,32.3142,0,U,64138,999,6032,.78959E-3,.21538E-3,0
STARLINK-34212,2025-111S,2026-06-13T12:49:44.948928,15.27593357,.00009068,43.0068,256.4186,118.6984,241.3959,0,U,64139,999,6012,.55299879E-3,.14992E-3,0
STARLINK-34149,2025-111T,2026-06-14T12:36:54.156384,15.27590021,.0000408,43.0076,250.9543,154.9060,205.1811,0,U,64140,999,6027,.78258E-3,.21341E-3,0
STARLINK-34054,2025-111U,2026-06-14T12:33:11.773152,15.27595318,.0000728,42.9962,250.9305,247.7864,112.2910,0,U,64141,999,6027,.89082E-3,.24344E-3,0
STARLINK-34195,2025-111V,2026-06-14T12:16:32.941632,15.27595875,.0000605,42.9955,250.8464,118.0461,242.0452,0,U,64142,999,6027,.7133E-3,.19428E-3,0
STARLINK-34133,2025-111W,2026-06-12T13:06:17.899200,15.27595198,.00018092,42.9834,261.8816,132.7759,227.3245,0,U,64143,999,5997,.8253723E-3,.22531E-3,0
STARLINK-34181,2025-111X,2026-06-14T12:42:27.197280,15.27607187,.0002587,42.9837,250.9795,268.9553,91.1002,0,U,64144,999,6027,.83849E-3,.22904E-3,0
STARLINK-34186,2025-111Y,2026-06-14T12:55:24.245184,15.27587849,.000026,43.0120,251.0483,343.1301,16.9542,0,U,64145,999,6027,.68522E-3,.18645E-3,0
STARLINK-34314,2025-112A,2026-06-14T11:58:07.821696,15.05663059,.0001387,97.3613,216.0179,143.6758,216.4564,0,U,64146,999,5787,.40295E-3,.5763E-4,0
STARLINK-33926,2025-112B,2026-06-14T09:46:33.032064,15.05657611,.0001003,97.3619,215.9902,134.1299,226.0011,0,U,64147,999,5786,.1977E-3,.2797E-4,0
STARLINK-34213,2025-112C,2026-06-14T08:58:41.738016,15.05657165,.0001281,97.3616,215.8812,90.6982,269.4393,0,U,64148,999,5785,.32691E-3,.4663E-4,0
STARLINK-33924,2025-112D,2026-06-14T02:47:51.141696,15.05656564,.0002218,97.3617,215.6179,111.6880,248.4583,0,U,64149,999,5781,.3499492E-3,.4996E-4,0
STARLINK-34209,2025-112E,2026-06-14T09:34:35.740128,15.05657060,.0002449,97.3602,216.0011,145.7702,214.3684,0,U,64150,999,5786,.35359E-3,.5049E-4,0
STARLINK-34338,2025-112F,2026-06-14T09:22:36.823872,15.05653252,.000254,97.3612,216.0135,129.3779,230.7674,0,U,64151,999,5786,-.38432E-3,-.5599E-4,0
STARLINK-34348,2025-112G,2026-06-14T10:10:28.447104,15.05659579,.0001425,97.3607,215.9689,109.8504,250.2877,0,U,64152,999,5786,.49587E-3,.7106E-4,0
STARLINK-34345,2025-112H,2026-06-14T09:58:30.782784,15.05657749,.0001289,97.3604,215.9809,92.9718,267.1657,0,U,64153,999,5786,.19741E-3,.2793E-4,0
STARLINK-33945,2025-112J,2026-06-14T09:47:23.907840,15.05660354,.0002057,97.3603,224.4741,104.6742,255.4714,0,U,64154,999,5841,.31084E-3,.4432E-4,0
STARLINK-34346,2025-112K,2026-06-14T09:38:34.859040,15.05657288,.0001905,97.3603,216.0065,105.2224,254.9214,0,U,64155,999,5786,.14496E-3,.2035E-4,0
STARLINK-34277,2025-112L,2026-06-14T02:27:55.210176,15.05661275,.00011686,97.3617,215.6429,133.6746,226.4579,0,U,64156,999,5781,.3643211E-3,.5205E-4,0
STARLINK-34166,2025-112N,2026-06-14T09:14:38.454720,15.05660424,.0000902,97.3612,215.8741,127.4895,232.6415,0,U,64158,999,5785,-.49984E-4,-.779E-5,0
STARLINK-34344,2025-112P,2026-06-14T09:02:40.803360,15.05658719,.0001541,97.3621,215.8858,129.1808,230.9556,0,U,64159,999,5785,.2576E-3,.3662E-4,0
STARLINK-34339,2025-112Q,2026-06-14T02:15:57.493152,15.05662692,.00013398,97.3626,215.6554,137.8445,222.2886,0,U,64160,999,5781,.38650918E-3,.5526E-4,0
STARLINK-34341,2025-112R,2026-06-14T09:50:32.468064,15.05661436,.0001581,97.3600,215.9975,104.0816,256.0587,0,U,64161,999,5786,.32927E-3,.4698E-4,0
STARLINK-34317,2025-112S,2026-06-14T09:26:36.883680,15.05658832,.0001725,97.3598,216.0159,95.6537,264.4887,0,U,64162,999,5786,.9416E-4,.1302E-4,0
STARLINK-34340,2025-112T,2026-06-14T08:54:42.247584,15.05663687,.0000846,97.3613,215.8939,98.5246,261.6078,0,U,64163,999,5785,.49724E-3,.7127E-4,0
STARLINK-34263,2025-112U,2026-06-14T02:19:55.597728,15.05656722,.00019677,97.3627,215.6509,145.0095,215.1262,0,U,64164,999,5781,-.44311175E-3,-.6446E-4,0
STARLINK-33793,2025-112V,2026-06-14T03:43:41.283552,15.05658230,.00016377,97.3596,215.7266,105.5205,254.6203,0,U,64165,999,5782,.3382934E-3,.4828E-4,0
STARLINK-34313,2025-112W,2026-06-14T09:54:31.762368,15.05659963,.0001473,97.3598,215.9941,106.2355,253.9035,0,U,64166,999,5786,.20031E-3,.2835E-4,0
