STARLINK-34254          
1 64136U 25111P   26165.50508440  .00015089  00000+0  55653-3 0  9995
2 64136  43.0052 250.8041 0003863 275.2195  84.8215 15.27587286 60271
STARLINK-34230          
1 64137U 25111Q   26165.50003471  .00221383  00000+0  85225-3 0  9994
2 64137  42.9819 215.1974 0024495  61.9605 150.6498 15.85474833  6014
STARLINK-34129          
1 64138U 25111R   26165.54490133  .00021538  00000+0  78959-3 0  9990
2 64138  43.0063 251.0982 0000296 327.7692  32.3142 15.27593084 60320
STARLINK-34212          
1 64139U 25111S   26164.53454802  .00014992  00000+0  55300-3 0  9993
2 64139  43.0068 256.4186 0000906 118.6984 241.3959 15.27593357 60129
STARLINK-34149          
1 64140U 25111T   26165.52562681  .00021341  00000+0  78258-3 0  9993
2 64140  43.0076 250.9543 0000408 154.9060 205.1811 15.27590021 60277
STARLINK-34054          
1 64141U 25111U   26165.52305293  .00024344  00000+0  89082-3 0  9991
2 64141  42.9962 250.9305 0000728 247.7864 112.2910 15.27595318 60276
STARLINK-34195          
1 64142U 25111V   26165.51149238  .00019428  00000+0  71330-3 0  9990
2 64142  42.9955 250.8464 0000605 118.0461 242.0452 15.27595875 60272
STARLINK-34133          
1 64143U 25111W   26163.54604050  .00022531  00000+0  82537-3 0  9990
2 64143  42.9834 261.8816 0001809 132.7759 227.3245 15.27595198 59971
STARLINK-34181          
1 64144U 25111X   26165.52948145  .00022904  00000+0  83849-3 0  9998
2 64144  42.9837 250.9795 0002587 268.9553  91.1002 15.27607187 60273
STARLINK-34186          
1 64145U 25111Y   26165.53847506  .00018645  00000+0  68522-3 0  9997
2 64145  43.0120 251.0483 0000260 343.1301  16.9542 15.27587849 60276
STARLINK-34314          
1 64146U 25112A   26165.49870164  .00005763  00000+0  40295-3 0  9994
2 64146  97.3613 216.0179 0001387 143.6758 216.4564 15.05663059 57876
STARLINK-33926          
1 64147U 25112B   26165.40732676  .00002797  00000+0  19770-3 0  9999
2 64147  97.3619 215.9902 0001003 134.1299 226.0011 15.05657611 57865
STARLINK-34213          
1 64148U 25112C   26165.37409419  .00004663  00000+0  32691-3 0  9993
2 64148  97.3616 215.8812 0001281  90.6982 269.4393 15.05657165 57852
STARLINK-33924          
1 64149U 25112D   26165.11656414  .00004996  00000+0  34995-3 0  9993
2 64149  97.3617 215.6179 0002218 111.6880 248.4583 15.05656564 57816
STARLINK-34209          
1 64150U 25112E   26165.39902477  .00005049  00000+0  35359-3 0  9993
2 64150  97.3602 216.0011 0002449 145.7702 214.3684 15.05657060 57860
STARLINK-34338          
1 64151U 25112F   26165.39070398 -.00005599  00000+0 -38432-3 0  9999
2 64151  97.3612 216.0135 0002540 129.3779 230.7674 15.05653252 57863
STARLINK-34348          
1 64152U 25112G   26165.42394036  .00007106  00000+0  49587-3 0  9999
2 64152  97.3607 215.9689 0001425 109.8504 250.2877 15.05659579 57860
STARLINK-34345          
1 64153U 25112H   26165.41563406  .00002793  00000+0  19741-3 0  9994
2 64153  97.3604 215.9809 0001289  92.9718 267.1657 15.05657749 57869
STARLINK-33945          
1 64154U 25112J   26165.40791560  .00004432  00000+0  31084-3 0  9994
2 64154  97.3603 224.4741 0002057 104.6742 255.4714 15.05660354 58413
STARLINK-34346          
1 64155U 25112K   26165.40179235  .00002035  00000+0  14496-3 0  9999
2 64155  97.3603 216.0065 0001905 105.2224 254.9214 15.05657288 57862
STARLINK-34277          
1 64156U 25112L   26165.10272234  .00005205  00000+0  36432-3 0  9996
2 64156  97.3617 215.6429 0001168 133.6746 226.4579 15.05661275 57816
STARLINK-34166          
1 64158U 25112N   26165.38516730 -.00000779  00000+0 -49984-4 0  9990
2 64158  97.3612 215.8741 0000902 127.4895 232.6415 15.05660424 57850
STARLINK-34344          
1 64159U 25112P   26165.37686115  .00003662  00000+0  25760-3 0  9992
2 64159  97.3621 215.8858 0001541 129.1808 230.9556 15.05658719 57854
STARLINK-34339          
1 64160U 25112Q   26165.09441543  .00005526  00000+0  38651-3 0  9991
2 64160  97.3626 215.6554 0001339 137.8445 222.2886 15.05662692 57811
STARLINK-34341          
1 64161U 25112R   26165.41009801  .00004698  00000+0  32927-3 0  9994
2 64161  97.3600 215.9975 0001581 104.0816 256.0587 15.05661436 57864
STARLINK-34317          
1 64162U 25112S   26165.39348245  .00001302  00000+0  94160-4 0  9997
2 64162  97.3598 216.0159 0001725  95.6537 264.4887 15.05658832 57864
STARLINK-34340          
1 64163U 25112T   26165.37132231  .00007127  00000+0  49724-3 0  9998
2 64163  97.3613 215.8939 0000846  98.5246 261.6078 15.05663687 57852
STARLINK-34263          
1 64164U 25112U   26165.09717127 -.00006446  00000+0 -44311-3 0  9993
2 64164  97.3627 215.6509 0001967 145.0095 215.1262 15.05656722 57811
STARLINK-33793          
1 64165U 25112V   26165.15533893  .00004828  00000+0  33829-3 0  9999
2 64165  97.3596 215.7266 0001637 105.5205 254.6203 15.05658230 57826
STARLINK-34313          
1 64166U 25112W   26165.41286762  .00002835  00000+0  20031-3 0  9996
2 64166  97.3598 215.9941 0001473 106.2355 253.9035 15.05659963 57866
